COSMOS 2433 (720)       
1 32275U 07052A   23095.69392373 -.00000056  00000+0  00000+0 0  9994
2 32275  66.0529 354.9706 0002642 291.7205 246.3217  2.13104039120194
COSMOS 2432 (719)       
1 32276U 07052B   23096.15386745 -.00000054  00000+0  00000+0 0  9991
2 32276  66.0680 355.0625 0011437 333.9520 144.4384  2.13103339120203
COSMOS 2434 (721)       
1 32393U 07065A   23095.56002922  .00000012  00000+0  00000+0 0  9994
2 32393  64.3482 231.4662 0004347  81.0288 244.9105  2.13103133118897
COSMOS 2436 (723)       
1 32395U 07065C   23095.75774780  .00000014  00000+0  00000+0 0  9997
2 32395  64.3557 231.5195 0016267   7.5977 245.6515  2.13102954118833
COSMOS 2456 (730)       
1 36111U 09070A   23095.39910091  .00000084  00000+0  00000+0 0  9999
2 36111  64.4345 111.0240 0005918 298.8656  65.0043  2.13099121103567
COSMOS 2457 (733)       
1 36112U 09070B   23096.35319464  .00000080  00000+0  00000+0 0  9990
2 36112  64.4223 110.8608 0004153 197.8246 307.5972  2.13101321103584
COSMOS 2460 (732)       
1 36402U 10007C   23095.62906781 -.00000055  00000+0  00000+0 0  9990
2 36402  65.9171 353.7120 0002273   7.8840 288.6837  2.13106331101912
COSMOS 2476 (744)       
1 37867U 11064A   23096.09111213  .00000083  00000+0  00000+0 0  9990
2 37867  64.7201 112.4690 0023985 240.3530 202.4384  2.13101757 88927
COSMOS 2477 (745)       
1 37868U 11064B   23095.74424313  .00000084  00000+0  00000+0 0  9991
2 37868  64.7285 112.5500 0021257 241.5125 113.1196  2.13101605 88868
COSMOS 2475 (743)       
1 37869U 11064C   23095.40149791  .00000085  00000+0  00000+0 0  9990
2 37869  64.7346 112.5741 0026033 256.0783 153.8932  2.13101807 88876
COSMOS 2485 (747)       
1 39155U 13019A   23096.02024341  .00000084  00000+0  00000+0 0  9993
2 39155  64.8824 112.9645 0024218 236.3731 196.4120  2.13101841 77397
COSMOS 2492 (754)       
1 39620U 14012A   23095.63526093 -.00000055  00000+0  00000+0 0  9990
2 39620  65.8021 353.3533 0014493 328.0305 203.7062  2.13103169 70330
COSMOS 2500 (755)       
1 40001U 14032A   23095.64900608 -.00000055  00000+0  00000+0 0  9996
2 40001  65.7424 353.1933 0004327 212.4483 187.6943  2.13102451 68553
COSMOS 2501 (702K)      
1 40315U 14075A   23095.44115267  .00000010  00000+0  00000+0 0  9998
2 40315  63.6518 230.9578 0017853 204.6914 205.3892  2.13101426 64951
COSMOS 2514 (751)       
1 41330U 16008A   23095.82566407 -.00000054  00000+0  00000+0 0  9991
2 41330  65.5396 352.8051 0007946 214.9449 145.0551  2.13102783 55727
COSMOS 2516 (753)       
1 41554U 16032A   23095.47518840  .00000011  00000+0  00000+0 0  9997
2 41554  63.8788 231.3155 0014423 212.2907 147.5863  2.13106367 53324
COSMOS 2522 (752)       
1 42939U 17055A   23095.61286228  .00000012  00000+0  00000+0 0  9990
2 42939  64.1125 231.7914 0005817 234.3386  83.1277  2.13101984 43076
COSMOS 2527 (756)       
1 43508U 18053A   23095.55527718  .00000086  00000+0  00000+0 0  9998
2 43508  65.0441 113.0413 0009942 241.2495  63.9693  2.13102490 37363
COSMOS 2529 (757)       
1 43687U 18086A   23095.77031932  .00000014  00000+0  00000+0 0  9995
2 43687  64.3253 232.1813 0007437 266.6798 127.0571  2.13102085 34392
COSMOS 2534 (758)       
1 44299U 19030A   23095.65040998  .00000013  00000+0  00000+0 0  9993
2 44299  64.3994 232.0961 0010099 291.5821 144.4941  2.13102061 30034
COSMOS 2544 (759)       
1 44850U 19088A   23095.77291770  .00000086  00000+0  16595+1 0  9995
2 44850  65.0303 112.8804 0014901 260.8498 254.5565  2.13102276 25807
COSMOS 2545 (760)       
1 45358U 20018A   23095.43888792 -.00000057  00000+0  00000+0 0  9995
2 45358  64.8803 353.1862 0008253 260.1390 208.1512  2.13102646 23754
COSMOS 2547 (705K)      
1 46805U 20075A   23095.82841868  .00000015  00000+0  00000+0 0  9995
2 46805  64.6275 231.6008 0005697 237.9403  23.3679  2.13103115 19007
COSMOS 2557 (706K)      
1 52984U 22075A   23095.46849906 -.00000059  00000+0  10000-3 0  9997
2 52984  64.7901 355.3612 0012405 289.5025 292.0330  2.13101712  5793
COSMOS 2559 (707K)      
1 54031U 22130A   23096.18455131 -.00000057  00000+0  00000+0 0  9990
2 54031  64.7613 355.4700 0005030 235.7631 220.1204  2.13100949  3790
COSMOS 2564 (761)       
1 54377U 22161A   23095.61978519  .00000013  00000+0  00000+0 0  9995
2 54377  64.7680 231.6341 0007635 211.5741  21.8849  2.13102106  2720
